RAPIDEYE1
1 33314U 08040C   18094.50481260  .00000028  00000-0  10517-4 0  9992
2 33314  97.7913 172.0209 0024795 134.0784 226.2481 14.79872179518449
